NORAD_CAT_ID,OBJECT_NAME,OBJECT_TYPE,EPOCH,MEAN_MOTION,ECCENTRICITY,INCLINATION,RA_OF_ASC_NODE,ARG_OF_PERICENTER,MEAN_ANOMALY,BSTAR,MEAN_MOTION_DOT,MEAN_MOTION_DDOT,TLE_LINE0,TLE_LINE1,TLE_LINE2,SEMIMAJOR_AXIS,PERIOD,APOGEE,PERIGEE,DECAYED
53416.0,STARLINK-4480,PAYLOAD,2022-11-29 10:50:24,15.0885122,0.0002039,53.2194,84.2325,38.9598,321.1541,1.6743e-05,-2.2e-07,0.0,0 STARLINK-4480,1 53416U 22097AE  22333.45167444 -.00000022  00000-0  16743-4 0  9997,2 53416  53.2194  84.2325 0002039  38.9598 321.1541 15.08851220 18036,6917.846,95.437,541.122,538.3009999999998,0.0
53416.0,STARLINK-4480,PAYLOAD,2022-11-29 14:01:10,15.08853479,0.000199,53.2194,83.6375,40.716,319.398,3.1705e-05,2.17e-06,0.0,0 STARLINK-4480,1 53416U 22097AE  22333.58415159  .00000217  00000-0  31705-4 0  9990,2 53416  53.2194  83.6375 0001990  40.7160 319.3980 15.08853479 17599,6917.839,95.437,541.081,538.328,0.0
53416.0,STARLINK-4480,PAYLOAD,2022-11-30 07:30:25,15.08836949,0.0001798,53.2201,80.3649,42.2688,317.8443,3.7016e-05,3.01e-06,0.0,0 STARLINK-4480,1 53416U 22097AE  22334.31279908  .00000301  00000-0  37016-4 0  9997,2 53416  53.2201  80.3649 0001798  42.2688 317.8443 15.08836949 17707,6917.89,95.438,540.999,538.511,0.0
53416.0,STARLINK-4480,PAYLOAD,2022-11-30 13:51:58,15.08838848,0.0002121,53.2191,79.1783,39.703,320.4117,-2.6475e-05,-7.1e-06,0.0,0 STARLINK-4480,1 53416U 22097AE  22334.57776076 -.00000710  00000-0 -26475-4 0  9996,2 53416  53.2191  79.1783 0002121  39.7030 320.4117 15.08838848 18207,6917.884,95.438,541.216,538.2819999999998,0.0
53416.0,STARLINK-4480,PAYLOAD,2022-12-01 13:42:45,15.08840903,0.0002201,53.2187,74.7176,37.9417,322.1729,4.8332e-05,4.81e-06,0.0,0 STARLINK-4480,1 53416U 22097AE  22335.57135682  .00000481  00000-0  48332-4 0  9998,2 53416  53.2187  74.7176 0002201  37.9417 322.1729 15.08840903 18356,6917.878000000002,95.437,541.265,538.22,0.0
53416.0,STARLINK-4480,PAYLOAD,2022-12-02 13:33:33,15.08826081,0.0002066,53.2193,70.2585,39.1339,320.9802,-2.8876e-05,-7.48e-06,0.0,0 STARLINK-4480,1 53416U 22097AE  22336.56496982 -.00000748  00000-0 -28876-4 0  9990,2 53416  53.2193  70.2585 0002066  39.1339 320.9802 15.08826081 18049,6917.9230000000025,95.438,541.217,538.359,0.0
53416.0,STARLINK-4480,PAYLOAD,2022-12-02 15:08:56,15.08826634,0.0002079,53.2209,69.9623,42.5903,317.525,-3.0815e-05,-7.78e-06,0.0,0 STARLINK-4480,1 53416U 22097AE  22336.63121014 -.00000778  00000-0 -30815-4 0  9998,2 53416  53.2209  69.9623 0002079  42.5903 317.5250 15.08826634 18519,6917.920999999999,95.438,541.224,538.3480000000002,0.0
53416.0,STARLINK-4480,PAYLOAD,2022-12-03 05:27:24,15.08837998,0.000212,53.2194,67.2845,38.1351,321.9790000000001,1.726e-05,-1.4e-07,0.0,0 STARLINK-4480,1 53416U 22097AE  22337.22736354 -.00000014  00000-0  17260-4 0  9994,2 53416  53.2194  67.2845 0002120  38.1351 321.9790 15.08837998 18146,6917.887,95.438,541.2180000000002,538.285,0.0
53416.0,STARLINK-4480,PAYLOAD,2022-12-03 13:24:20,15.08833033,0.0002055,53.2202,65.7974,38.916,321.1979,-6.0057e-05,-1.244e-05,0.0,0 STARLINK-4480,1 53416U 22097AE  22337.55857072 -.00001244  00000-0 -60057-4 0  9990,2 53416  53.2202  65.7974 0002055  38.9160 321.1979 15.08833033 18197,6917.901999999999,95.438,541.188,538.345,0.0
53416.0,STARLINK-4480,PAYLOAD,2022-12-03 14:59:43,15.08825347,0.00022,53.2202,65.4999,35.1125,325.0012,5.120100000000001e-05,5.26e-06,0.0,0 STARLINK-4480,1 53416U 22097AE  22337.62481239  .00000526  00000-0  51201-4 0  9997,2 53416  53.2202  65.4999 0002200  35.1125 325.0012 15.08825347 18665,6917.925,95.438,541.312,538.268,0.0
53416.0,STARLINK-4480,PAYLOAD,2022-12-04 06:53:34,15.08837396,0.0002171,53.2204,62.5261,34.9869,325.1266,0.00013116,1.8e-05,0.0,0 STARLINK-4480,1 53416U 22097AE  22338.28720289  .00001800  00000-0  13116-3 0  9999,2 53416  53.2204  62.5261 0002171  34.9869 325.1266 15.08837396 18306,6917.888000000001,95.438,541.255,538.251,0.0
53416.0,STARLINK-4480,PAYLOAD,2022-12-04 11:39:43,15.08842191,0.0002184,53.2203,61.63399999999999,35.9399,324.1740000000001,0.00017125,2.438e-05,0.0,0 STARLINK-4480,1 53416U 22097AE  22338.48591876  .00002438  00000-0  17125-3 0  9991,2 53416  53.2203  61.6340 0002184  35.9399 324.1740 15.08842191 18794,6917.874,95.437,541.25,538.2280000000002,0.0
53416.0,STARLINK-4480,PAYLOAD,2022-12-04 13:15:06,15.08843407,0.0002203,53.2205,61.3368,35.6191,324.4948,0.00017973,2.574e-05,0.0,0 STARLINK-4480,1 53416U 22097AE  22338.55215782  .00002574  00000-0  17973-3 0  9990,2 53416  53.2205  61.3368 0002203  35.6191 324.4948 15.08843407 18347,6917.87,95.437,541.259,538.211,0.0
53416.0,STARLINK-4480,PAYLOAD,2022-12-04 22:47:25,15.08840576,0.0002202,53.2202,59.5528,35.2845,324.8292,6.2443e-05,7.06e-06,0.0,0 STARLINK-4480,1 53416U 22097AE  22338.94960368  .00000706  00000-0  62443-4 0  9998,2 53416  53.2202  59.5528 0002202  35.2845 324.8292 15.08840576 18409,6917.879,95.438,541.2669999999998,538.22,0.0
53416.0,STARLINK-4480,PAYLOAD,2022-12-05 11:30:29,15.08851316,0.0002149,53.2198,57.174,33.3631,326.7496,0.00018043,2.585e-05,0.0,0 STARLINK-4480,1 53416U 22097AE  22339.47951104  .00002585  00000-0  18043-3 0  9998,2 53416  53.2198  57.1740 0002149  33.3631 326.7496 15.08851316 18484,6917.846,95.437,541.197,538.224,0.0
53416.0,STARLINK-4480,PAYLOAD,2022-12-06 04:59:44,15.08848527,0.0002429,53.2197,53.9049,18.5985,341.5096,7.0235e-05,8.3e-06,0.0,0 STARLINK-4480,1 53416U 22097AE  22340.20815234  .00000830  00000-0  70235-4 0  9997,2 53416  53.2197  53.9049 0002429  18.5985 341.5096 15.08848527 18590,6917.854,95.437,541.4,538.039,0.0
53416.0,STARLINK-4480,PAYLOAD,2022-12-06 11:21:17,15.08843745,0.0002224,53.2206,52.7138,34.639,325.4746,-7.7128e-05,-1.516e-05,0.0,0 STARLINK-4480,1 53416U 22097AE  22340.47311924 -.00001516  00000-0 -77128-4 0  9995,2 53416  53.2206  52.7138 0002224  34.6390 325.4746 15.08843745 18634,6917.869000000002,95.437,541.2719999999998,538.195,0.0
53416.0,STARLINK-4480,PAYLOAD,2022-12-06 16:07:27,15.0883196,0.000216,53.2191,51.8205,34.0437,326.0693,-0.00017195,-3.023e-05,0.0,0 STARLINK-4480,1 53416U 22097AE  22340.67184944 -.00003023  00000-0 -17195-3 0  9999,2 53416  53.2191  51.8205 0002160  34.0437 326.0693 15.08831960 19126,6917.905,95.438,541.264,538.276,0.0
53416.0,STARLINK-4480,PAYLOAD,2022-12-07 15:58:14,15.0884223,0.0002192,53.2201,47.3611,32.2158,327.8967,-8.9011e-05,-1.705e-05,0.0,0 STARLINK-4480,1 53416U 22097AE  22341.66544494 -.00001705  00000-0 -89011-4 0  9991,2 53416  53.2201  47.3611 0002192  32.2158 327.8967 15.08842230 18814,6917.874,95.437,541.255,538.222,0.0
53416.0,STARLINK-4480,PAYLOAD,2022-12-08 11:02:51,15.08841799,0.0002426,53.2209,43.7961,39.045,321.0717,4.5747e-05,4.4e-06,0.0,0 STARLINK-4480,1 53416U 22097AE  22342.46032192  .00000440  00000-0  45747-4 0  9998,2 53416  53.2209  43.7961 0002426  39.0450 321.0717 15.08841799 19392,6917.875,95.437,541.418,538.062,0.0
53416.0,STARLINK-4480,PAYLOAD,2022-12-09 04:32:07,15.08823569,0.000251,53.2209,40.5264,29.4404,330.673,8.7915e-05,1.11e-05,0.0,0 STARLINK-4480,1 53416U 22097AE  22343.18897969  .00001110  00000-0  87915-4 0  9997,2 53416  53.2209  40.5264 0002510  29.4404 330.6730 15.08823569 19047,6917.931,95.439,541.5319999999998,538.059,0.0
53416.0,STARLINK-4480,PAYLOAD,2022-12-10 09:09:04,15.08837973,0.0002303,53.2211,35.1709,36.0241,324.0906,3.1385e-05,2.11e-06,0.0,0 STARLINK-4480,1 53416U 22097AE  22344.38130175  .00000211  00000-0  31385-4 0  9990,2 53416  53.2211  35.1709 0002303  36.0241 324.0906 15.08837973 19223,6917.887,95.438,541.345,538.158,0.0
53416.0,STARLINK-4480,PAYLOAD,2022-12-11 10:35:14,15.0884332,0.0002424,53.2201,30.4128,30.2131,329.9,0.00026046,3.86e-05,0.0,0 STARLINK-4480,1 53416U 22097AE  22345.44113442  .00003860  00000-0  26046-3 0  9996,2 53416  53.2201  30.4128 0002424  30.2131 329.9000 15.08843320 19382,6917.87,95.437,541.4119999999998,538.058,0.0
53416.0,STARLINK-4480,PAYLOAD,2022-12-12 04:04:28,15.08846608,0.0002407,53.2209,27.1422,33.0219,327.0923,5.7893e-05,6.33e-06,0.0,0 STARLINK-4480,1 53416U 22097AE  22346.16977805  .00000633  00000-0  57893-4 0  9997,2 53416  53.2209  27.1422 0002407  33.0219 327.0923 15.08846608 19496,6917.86,95.437,541.39,538.06,0.0
53416.0,STARLINK-4480,PAYLOAD,2022-12-12 10:26:01,15.08847695,0.0002413,53.2207,25.9527,34.0899,326.0247,5.9648e-05,6.61e-06,0.0,0 STARLINK-4480,1 53416U 22097AE  22346.43473574  .00000661  00000-0  59648-4 0  9992,2 53416  53.2207  25.9527 0002413  34.0899 326.0247 15.08847695 19998,6917.857,95.437,541.391,538.053,0.0
53416.0,STARLINK-4480,PAYLOAD,2022-12-13 08:41:25,15.0884519,0.0002371,53.22,21.7892,35.2638,324.8511,-4.409600000000001e-05,-9.9e-06,0.0,0 STARLINK-4480,1 53416U 22097AE  22347.36209667 -.00000990  00000-0 -44096-4 0  9993,2 53416  53.2200  21.7892 0002371  35.2638 324.8511 15.08845190 19670,6917.865,95.437,541.37,538.089,0.0
53416.0,STARLINK-4480,PAYLOAD,2022-12-13 11:52:11,15.08848342,0.000241,53.2202,21.1939,31.4166,328.6969,-3.4586e-05,-8.39e-06,0.0,0 STARLINK-4480,1 53416U 22097AE  22347.49457354 -.00000839  00000-0 -34586-4 0  9990,2 53416  53.2202  21.1939 0002410  31.4166 328.6969 15.08848342 20152,6917.855,95.437,541.387,538.053,0.0
53416.0,STARLINK-4480,PAYLOAD,2022-12-14 11:42:58,15.08840557,0.0002549,53.2207,16.735,31.3156,328.7987,5.0931e-06,-2.07e-06,0.0,0 STARLINK-4480,1 53416U 22097AE  22348.48817442 -.00000207  00000-0  50931-5 0  9999,2 53416  53.2207  16.7350 0002549  31.3156 328.7987 15.08840557 19840,6917.879,95.438,541.507,537.98,0.0
53416.0,STARLINK-4480,PAYLOAD,2022-12-14 19:39:53,15.08844337,0.0002525,53.2202,15.2491,30.1722,329.9415,5.9981e-05,6.66e-06,0.0,0 STARLINK-4480,1 53416U 22097AE  22348.81936960  .00000666  00000-0  59981-4 0  9994,2 53416  53.2202  15.2491 0002525  30.1722 329.9415 15.08844337 20352,6917.8669999999975,95.437,541.479,537.985,0.0
